NORAD_CAT_ID,OBJECT_NAME,OBJECT_TYPE,EPOCH,MEAN_MOTION,ECCENTRICITY,INCLINATION,RA_OF_ASC_NODE,ARG_OF_PERICENTER,MEAN_ANOMALY,BSTAR,MEAN_MOTION_DOT,MEAN_MOTION_DDOT,TLE_LINE0,TLE_LINE1,TLE_LINE2,SEMIMAJOR_AXIS,PERIOD,APOGEE,PERIGEE,DECAYED
53716.0,STARLINK-4699,PAYLOAD,2023-10-10 22:21:57,15.08833338,0.0001366,53.2159,247.6707,102.7504,257.3641,-0.00012992,-2.355e-05,0.0,0 STARLINK-4699,1 53716U 22107S   23283.93191654 -.00002355  00000-0 -12992-3 0  9993,2 53716  53.2159 247.6707 0001366 102.7504 257.3641 15.08833338 61442,6917.901,95.438,540.711,538.821,0.0
53716.0,STARLINK-4699,PAYLOAD,2023-10-11 03:08:06,15.08840238,0.0001502,53.2168,246.7803,104.3146,255.8013,-2.3681e-05,-6.65e-06,0.0,0 STARLINK-4699,1 53716U 22107S   23284.13063394 -.00000665  00000-0 -23681-4 0  9995,2 53716  53.2168 246.7803 0001502 104.3146 255.8013 15.08840238 61028,6917.88,95.438,540.784,538.706,0.0
53716.0,STARLINK-4699,PAYLOAD,2023-10-11 07:54:16,15.08845101,0.0001391,53.2161,245.8883,99.7079,260.4071,0.0003884,5.9e-05,0.0,0 STARLINK-4699,1 53716U 22107S   23284.32935347  .00005900  00000-0  38840-3 0  9999,2 53716  53.2161 245.8883 0001391  99.7079 260.4071 15.08845101 61500,6917.865,95.437,540.692,538.768,0.0
53716.0,STARLINK-4699,PAYLOAD,2023-10-12 04:34:17,15.08839081,0.0001664,53.217,242.0255,106.3094,253.8081,0.00017783,2.543e-05,0.0,0 STARLINK-4699,1 53716U 22107S   23285.19048118  .00002543  00000-0  17783-3 0  9999,2 53716  53.2170 242.0255 0001664 106.3094 253.8081 15.08839081 61188,6917.883,95.438,540.899,538.597,0.0
53716.0,STARLINK-4699,PAYLOAD,2023-10-12 06:09:40,15.08839523,0.0001597,53.2169,241.7275,99.4382,260.679,0.00020188,2.926e-05,0.0,0 STARLINK-4699,1 53716U 22107S   23285.25672163  .00002926  00000-0  20188-3 0  9997,2 53716  53.2169 241.7275 0001597  99.4382 260.6790 15.08839523 61646,6917.882,95.438,540.852,538.642,0.0
53716.0,STARLINK-4699,PAYLOAD,2023-10-13 06:00:27,15.08849438,0.0001498,53.2166,237.2663,104.7638,255.3521,0.00031243,4.689e-05,0.0,0 STARLINK-4699,1 53716U 22107S   23286.25031912  .00004689  00000-0  31243-3 0  9991,2 53716  53.2166 237.2663 0001498 104.7638 255.3521 15.08849438 61344,6917.852,95.437,540.753,538.68,0.0
53716.0,STARLINK-4699,PAYLOAD,2023-10-13 13:57:23,15.08847066,0.0001617,53.2168,235.7773,80.1107,280.0068,0.00024562,3.624e-05,0.0,0 STARLINK-4699,1 53716U 22107S   23286.58152156  .00003624  00000-0  24562-3 0  9995,2 53716  53.2168 235.7773 0001617  80.1107 280.0068 15.08847066 61843,6917.859,95.437,540.842,538.605,0.0
53716.0,STARLINK-4699,PAYLOAD,2023-10-14 13:48:10,15.08837172,0.0001611,53.2172,231.3191,91.6491,268.4686,-2.3311e-05,-6.59e-06,0.0,0 STARLINK-4699,1 53716U 22107S   23287.57512264 -.00000659  00000-0 -23311-4 0  9994,2 53716  53.2172 231.3191 0001611  91.6491 268.4686 15.08837172 61990,6917.889,95.438,540.869,538.64,0.0
53716.0,STARLINK-4699,PAYLOAD,2023-10-14 20:09:43,15.08834394,0.0002179,53.2179,230.1278,88.7099,271.4142,-0.00013833,-2.489e-05,0.0,0 STARLINK-4699,1 53716U 22107S   23287.84008516 -.00002489  00000-0 -13833-3 0  9994,2 53716  53.2179 230.1278 0002179  88.7099 271.4142 15.08834394 61580,6917.898,95.438,541.27,538.255,0.0
53716.0,STARLINK-4699,PAYLOAD,2023-10-15 13:38:58,15.0883789,0.000137,53.2162,226.8568,108.2519,251.8622,4.153e-06,-2.22e-06,0.0,0 STARLINK-4699,1 53716U 22107S   23288.56872698 -.00000222  00000-0  41530-5 0  9993,2 53716  53.2162 226.8568 0001370 108.2519 251.8622 15.08837890 62145,6917.887,95.438,540.7,538.804,0.0
53716.0,STARLINK-4699,PAYLOAD,2023-10-15 20:00:30,15.08838661,0.0001229,53.2159,225.6679,97.4508,262.6624,0.00020193,2.927e-05,0.0,0 STARLINK-4699,1 53716U 22107S   23288.83368779  .00002927  00000-0  20193-3 0  9996,2 53716  53.2159 225.6679 0001229  97.4508 262.6624 15.08838661 62184,6917.884,95.438,540.6,538.899,0.0
53716.0,STARLINK-4699,PAYLOAD,2023-10-16 02:22:03,15.08851104,0.0001322,53.2161,224.4788,97.8282,262.286,0.00056762,8.76e-05,0.0,0 STARLINK-4699,1 53716U 22107S   23289.09864624  .00008760  00000-0  56762-3 0  9997,2 53716  53.2161 224.4788 0001322  97.8282 262.2860 15.08851104 61771,6917.846,95.437,540.626,538.797,0.0
53716.0,STARLINK-4699,PAYLOAD,2023-10-18 02:03:37,15.08844953,0.0001364,53.2162,215.5585,101.4994,258.6151,0.00076382,0.00011891,0.0,0 STARLINK-4699,1 53716U 22107S   23291.08584898  .00011891  00000-0  76382-3 0  9990,2 53716  53.2162 215.5585 0001364 101.4994 258.6151 15.08844953 62526,6917.865,95.437,540.674,538.787,0.0
53716.0,STARLINK-4699,PAYLOAD,2023-10-18 11:35:56,15.08848694,0.0001379,53.2164,213.7738,95.2544,264.8606,0.00059985,9.274e-05,0.0,0 STARLINK-4699,1 53716U 22107S   23291.48328815  .00009274  00000-0  59985-3 0  9991,2 53716  53.2164 213.7738 0001379  95.2544 264.8606 15.08848694 62132,6917.854,95.437,540.673,538.765,0.0
53716.0,STARLINK-4699,PAYLOAD,2023-10-18 21:08:15,15.08841591,0.0001711,53.2149,211.9908,98.9941,261.1245,0.00018752,2.698e-05,0.0,0 STARLINK-4699,1 53716U 22107S   23291.88072934  .00002698  00000-0  18752-3 0  9993,2 53716  53.2149 211.9908 0001711  98.9941 261.1245 15.08841591 62649,6917.876,95.437,540.924,538.557,0.0
53716.0,STARLINK-4699,PAYLOAD,2023-10-19 01:54:24,15.08854376,0.0001591,53.214,211.1016,90.414,269.7035,0.00040415,6.152e-05,0.0,0 STARLINK-4699,1 53716U 22107S   23292.07944587  .00006152  00000-0  40415-3 0  9997,2 53716  53.2140 211.1016 0001591  90.4140 269.7035 15.08854376 62226,6917.836,95.437,540.802,538.601,0.0
53716.0,STARLINK-4699,PAYLOAD,2023-10-19 19:23:38,15.08847813,0.0001316,53.2156,207.8278,91.0541,269.0602,0.00018908,2.723e-05,0.0,0 STARLINK-4699,1 53716U 22107S   23292.80808494  .00002723  00000-0  18908-3 0  9996,2 53716  53.2156 207.8278 0001316  91.0541 269.0602 15.08847813 62335,6917.857,95.437,540.632,538.811,0.0
53716.0,STARLINK-4699,PAYLOAD,2023-10-19 22:34:24,15.08849302,0.0001425,53.2151,207.2335,99.092,261.0234,0.00016359,2.317e-05,0.0,0 STARLINK-4699,1 53716U 22107S   23292.94056336  .00002317  00000-0  16359-3 0  9998,2 53716  53.2151 207.2335 0001425  99.0920 261.0234 15.08849302 62808,6917.852,95.437,540.703,538.731,0.0
53716.0,STARLINK-4699,PAYLOAD,2023-10-20 03:20:33,15.08856022,0.00015,53.2157,206.3407,88.8396,271.2768,0.00024079,3.548e-05,0.0,0 STARLINK-4699,1 53716U 22107S   23293.13927912  .00003548  00000-0  24079-3 0  9992,2 53716  53.2157 206.3407 0001500  88.8396 271.2768 15.08856022 62836,6917.831,95.437,540.734,538.659,0.0
53716.0,STARLINK-4699,PAYLOAD,2023-10-20 22:25:12,15.08827248,0.0001319,53.2166,202.7716,74.8644,285.2494,-8.596e-05,-1.655e-05,0.0,0 STARLINK-4699,1 53716U 22107S   23293.93417685 -.00001655  00000-0 -85960-4 0  9997,2 53716  53.2166 202.7716 0001319  74.8644 285.2494 15.08827248 62950,6917.919,95.438,540.697,538.872,0.0
53716.0,STARLINK-4699,PAYLOAD,2023-10-21 01:35:58,15.08832627,0.0001259,53.2155,202.1793,88.1885,271.9252,-9.8354e-05,-1.852e-05,0.0,0 STARLINK-4699,1 53716U 22107S   23294.06665424 -.00001852  00000-0 -98354-4 0  9998,2 53716  53.2155 202.1793 0001259  88.1885 271.9252 15.08832627 62529,6917.903,95.438,540.639,538.897,0.0
53716.0,STARLINK-4699,PAYLOAD,2023-10-21 11:08:17,15.08841053,0.0001303,53.2166,200.3924,85.5344,274.5797,0.00011925,1.611e-05,0.0,0 STARLINK-4699,1 53716U 22107S   23294.46409126  .00001611  00000-0  11925-3 0  9996,2 53716  53.2166 200.3924 0001303  85.5344 274.5797 15.08841053 62580,6917.877,95.437,540.644,538.841,0.0
53716.0,STARLINK-4699,PAYLOAD,2023-10-21 22:15:58,15.08857615,0.0001128,53.2154,198.3123,82.8328,277.2792,0.00059401,9.183e-05,0.0,0 STARLINK-4699,1 53716U 22107S   23294.92776507  .00009183  00000-0  59401-3 0  9990,2 53716  53.2154 198.3123 0001128  82.8328 277.2792 15.08857615 63106,6917.827,95.436,540.472,538.911,0.0
53716.0,STARLINK-4699,PAYLOAD,2023-10-22 03:02:07,15.08878438,0.0001116,53.2151,197.4192,89.9245,270.1875,0.001335,0.00021045,0.0,0 STARLINK-4699,1 53716U 22107S   23295.12648085  .00021045  00000-0  13350-2 0  9995,2 53716  53.2151 197.4192 0001116  89.9245 270.1875 15.08878438 62684,6917.763,95.435,540.4,538.856,0.0
53716.0,STARLINK-4699,PAYLOAD,2023-10-22 10:59:04,15.08835573,0.0002283,53.2162,195.9324,74.0219,286.1025,-6.5715e-05,-1.334e-05,0.0,0 STARLINK-4699,1 53716U 22107S   23295.45769172 -.00001334  00000-0 -65715-4 0  9997,2 53716  53.2162 195.9324 0002283  74.0219 286.1025 15.08835573 62731,6917.894,95.438,541.338,538.18,0.0
53716.0,STARLINK-4699,PAYLOAD,2023-10-22 22:06:46,15.08825759,0.0001205,53.2153,193.8514,75.1026,285.01,-0.00014296,-2.561e-05,0.0,0 STARLINK-4699,1 53716U 22107S   23295.92137485 -.00002561  00000-0 -14296-3 0  9995,2 53716  53.2153 193.8514 0001205  75.1026 285.0100 15.08825759 63255,6917.924,95.438,540.623,538.955,0.0
53716.0,STARLINK-4699,PAYLOAD,2023-10-22 23:42:10,15.08816483,0.0001247,53.2152,193.5539,68.7592,291.3533,0.0011498,0.00018047,0.0,0 STARLINK-4699,1 53716U 22107S   23295.98761841  .00018047  00000-0  11498-2 0  9994,2 53716  53.2152 193.5539 0001247  68.7592 291.3533 15.08816483 62815,6917.952,95.439,540.68,538.955,0.0
53716.0,STARLINK-4699,PAYLOAD,2023-10-23 20:22:12,15.08812342,0.0001563,53.2158,189.688,78.0189,282.0978,0.0010038,0.00015711,0.0,0 STARLINK-4699,1 53716U 22107S   23296.84875526  .00015711  00000-0  10038-2 0  9990,2 53716  53.2158 189.6880 0001563  78.0189 282.0978 15.08812342 62947,6917.965,95.439,540.911,538.749,0.0
53716.0,STARLINK-4699,PAYLOAD,2023-10-23 21:57:35,15.0882377,0.0001934,53.217,189.3907,81.5131,278.608,0.0017862,0.00028241,0.0,0 STARLINK-4699,1 53716U 22107S   23296.91499618  .00028241  00000-0  17862-2 0  9996,2 53716  53.2170 189.3907 0001934  81.5131 278.6080 15.08823770 63400,6917.93,95.439,541.133,538.457,0.0
53716.0,STARLINK-4699,PAYLOAD,2023-10-24 02:43:44,15.08858069,0.0001791,53.2172,188.4969,104.6736,255.4455,0.0036996,0.00059115,0.0,0 STARLINK-4699,1 53716U 22107S   23297.11371360  .00059115  00000-0  36996-2 0  9995,2 53716  53.2172 188.4969 0001791 104.6736 255.4455 15.08858069 62989,6917.825,95.436,540.929,538.451,0.0
